STARLINK-34685          
1 64813U 25150Z   26160.69917651  .00004577  00000+0  39099-3 0  9999
2 64813  70.0004 262.6708 0003191 269.2038  90.8756 14.98341221 50296
STARLINK-34668          
1 64814U 25150AA  26160.71584523  .00003435  00000+0  29546-3 0  9999
2 64814  70.0007 262.3269 0003281 271.5628  88.5155 14.98337856 50296
STARLINK-34667          
1 64815U 25150AB  26160.66578419  .00000211  00000+0  25479-4 0  9992
2 64815  70.0001 262.5528 0003126 265.3529  94.7273 14.98333023 50292
STARLINK-34723          
1 64842U 25152A   26160.60449029  .00000486  00000+0  37682-4 0  9995
2 64842  97.3835  15.2816 0002085  82.6549 277.4915 15.05662309 49244
STARLINK-34725          
1 64843U 25152B   26160.52142073  .00005211  00000+0  36476-3 0  9996
2 64843  97.3837  15.2431 0002449  87.6863 272.4645 15.05661207 49238
STARLINK-34709          
1 64844U 25152C   26160.52418859  .00004587  00000+0  32164-3 0  9990
2 64844  97.3843  15.2333 0002605  84.3152 275.8372 15.05660075 49232
STARLINK-34706          
1 64845U 25152D   26160.60172041  .00003690  00000+0  25954-3 0  9993
2 64845  97.3825  15.2853 0001963  85.2991 274.8460 15.05657407 49240
STARLINK-34736          
1 64846U 25152E   26160.56573443 -.00007234  00000+0 -49813-3 0  9990
2 64846  97.3889  15.3261 0001965  42.7054 317.4325 15.05632664 49247
STARLINK-34746          
1 64847U 25152F   26160.50480810  .00005691  00000+0  39796-3 0  9992
2 64847  97.3839  15.2623 0002726  87.6687 272.4852 15.05661903 49232
STARLINK-34748          
1 64848U 25152G   26160.55742391  .00005372  00000+0  37592-3 0  9991
2 64848  97.3827  15.3452 0001918  88.7763 271.3685 15.05660243 49249
STARLINK-34756          
1 64849U 25152H   26160.50757521 -.00005872  00000+0 -40333-3 0  9992
2 64849  97.3843  15.2782 0002570  96.2131 263.9389 15.05645248 49236
STARLINK-34757          
1 64850U 25152J   26160.51588395  .00003357  00000+0  23649-3 0  9991
2 64850  97.3844  15.2448 0003062  85.7465 274.4113 15.05661658 49233
STARLINK-34722          
1 64851U 25152K   26160.59341636  .00002810  00000+0  19861-3 0  9999
2 64851  97.3833  15.2969 0002498  85.5131 274.6382 15.05657386 49244
STARLINK-34564          
1 64852U 25152L   26160.51034534  .00004011  00000+0  28174-3 0  9990
2 64852  97.3830  15.2548 0002527  87.8117 272.3399 15.05659922 49237
STARLINK-34676          
1 64853U 25152M   26160.59620796  .00006689  00000+0  46728-3 0  9998
2 64853  97.3860  15.2898 0002196  91.9709 268.1770 15.05638261 49244
STARLINK-34682          
1 64854U 25152N   26160.54912513 -.00001330  00000+0 -88217-4 0  9995
2 64854  97.3878  15.3650 0002205  70.6960 289.4506 15.05649601 49248
STARLINK-34631          
1 64855U 25152P   26160.51311460  .00006721  00000+0  46921-3 0  9999
2 64855  97.3842  15.2501 0002946  85.3257 274.8307 15.05662727 49238
STARLINK-34578          
1 64856U 25152Q   26160.61004392  .00000866  00000+0  64031-4 0  9991
2 64856  97.3873  15.4405 0001958  73.0855 287.0587 15.05651021 49251
STARLINK-34683          
1 64857U 25152R   26160.50205837  .00005853  00000+0  40916-3 0  9993
2 64857  97.3868  15.2717 0002532  77.3775 282.7735 15.05665420 49230
STARLINK-34654          
1 64858U 25152S   26160.54636830  .00008661  00000+0  60330-3 0  9991
2 64858  97.3830  15.3521 0002310  76.1420 284.0064 15.05661872 49240
STARLINK-34575          
1 64859U 25152T   26160.60727031  .00004138  00000+0  29059-3 0  9991
2 64859  97.3823  15.4321 0002069  88.3395 271.8069 15.05657645 49252
STARLINK-34570          
1 64860U 25152U   26160.59894258  .00027899  00000+0  19274-2 0  9993
2 64860  97.3855  15.2988 0002616  96.8927 263.2598 15.05698939 49241
STARLINK-34651          
1 64861U 25152V   26160.51864156  .00008409  00000+0  58558-3 0  9995
2 64861  97.3903  15.2655 0001488  91.3683 268.7715 15.05684380 49237
STARLINK-34684          
1 64862U 25152W   26160.56019296  .00005765  00000+0  40311-3 0  9998
2 64862  97.3836  15.3501 0001784  75.7249 284.4176 15.05661198 49246
STARLINK-34690          
1 64863U 25152X   26160.55189087 -.00010822  00000+0 -74760-3 0  9991
2 64863  97.3895  15.3603 0000839  70.5332 289.5986 15.05629172 49242
STARLINK-34628          
1 64864U 25152Y   26160.56295984  .00004479  00000+0  31413-3 0  9994
2 64864  97.3834  15.3385 0002032  84.6774 275.4685 15.05660628 49247
STARLINK-34544          
1 64865U 25152Z   26160.55466047 -.00004303  00000+0 -29453-3 0  9993
2 64865  97.3881  15.3520 0001501  78.9681 281.1715 15.05634778 49249
STARLINK-34647          
1 64904U 25157A   26160.50360027  .00030663  00000+0  91414-3 0  9990
2 64904  53.1597 279.0152 0002141  45.5430 314.5747 15.34426668 50179
STARLINK-34273          
1 64905U 25157B   26160.56031540  .00010521  00000+0  32200-3 0  9991
2 64905  53.1602 278.6530 0001429  95.0848 265.0318 15.34406209 50200
STARLINK-34713          
1 64906U 25157C   26160.64997223  .00016452  00000+0  56605-3 0  9994
2 64906  53.1625 278.5027 0000871  76.5108 283.5990 15.30217771 50154
