OBJECT_NAME,OBJECT_ID,EPOCH,MEAN_MOTION,ECCENTRICITY,INCLINATION,RA_OF_ASC_NODE,ARG_OF_PERICENTER,MEAN_ANOMALY,EPHEMERIS_TYPE,CLASSIFICATION_TYPE,NORAD_CAT_ID,ELEMENT_SET_NO,REV_AT_EPOCH,BSTAR,MEAN_MOTION_DOT,MEAN_MOTION_DDOT
STARLINK-34685,2025-150Z,2026-06-09T16:46:48.850464,14.98341221,.00031919,70.0004,262.6708,269.2038,90.8756,0,U,64813,999,5029,.39098719E-3,.4577E-4,0
STARLINK-34668,2025-150AA,2026-06-09T17:10:49.027872,14.98337856,.00032814,70.0007,262.3269,271.5628,88.5155,0,U,64814,999,5029,.2954583E-3,.3435E-4,0
STARLINK-34667,2025-150AB,2026-06-09T15:58:43.754016,14.98333023,.00031266,70.0001,262.5528,265.3529,94.7273,0,U,64815,999,5029,.25478605E-4,.211E-5,0
STARLINK-34723,2025-152A,2026-06-09T14:30:27.961056,15.05662309,.00020859,97.3835,15.2816,82.6549,277.4915,0,U,64842,999,4924,.37682084E-4,.486E-5,0
STARLINK-34725,2025-152B,2026-06-09T12:30:50.751072,15.05661207,.00024494,97.3837,15.2431,87.6863,272.4645,0,U,64843,999,4923,.36475889E-3,.5211E-4,0
STARLINK-34709,2025-152C,2026-06-09T12:34:49.894176,15.05660075,.00026056,97.3843,15.2333,84.3152,275.8372,0,U,64844,999,4923,.32164064E-3,.4587E-4,0
STARLINK-34706,2025-152D,2026-06-09T14:26:28.643424,15.05657407,.00019634,97.3825,15.2853,85.2991,274.8460,0,U,64845,999,4924,.25953796E-3,.369E-4,0
STARLINK-34736,2025-152E,2026-06-09T13:34:39.454752,15.05632664,.00019653,97.3889,15.3261,42.7054,317.4325,0,U,64846,999,4924,-.49812516E-3,-.7234E-4,0
STARLINK-34746,2025-152F,2026-06-09T12:06:55.419840,15.05661903,.00027261,97.3839,15.2623,87.6687,272.4852,0,U,64847,999,4923,.39795803E-3,.5691E-4,0
STARLINK-34748,2025-152G,2026-06-09T13:22:41.425824,15.05660243,.00019183,97.3827,15.3452,88.7763,271.3685,0,U,64848,999,4924,.37591992E-3,.5372E-4,0
STARLINK-34756,2025-152H,2026-06-09T12:10:54.498144,15.05645248,.00025707,97.3843,15.2782,96.2131,263.9389,0,U,64849,999,4923,-.40333449E-3,-.5872E-4,0
STARLINK-34757,2025-152J,2026-06-09T12:22:52.373280,15.05661658,.00030625,97.3844,15.2448,85.7465,274.4113,0,U,64850,999,4923,.23649203E-3,.3357E-4,0
STARLINK-34722,2025-152K,2026-06-09T14:14:31.173504,15.05657386,.00024987,97.3833,15.2969,85.5131,274.6382,0,U,64851,999,4924,.19860599E-3,.281E-4,0
STARLINK-34564,2025-152L,2026-06-09T12:14:53.837376,15.05659922,.00025271,97.3830,15.2548,87.8117,272.3399,0,U,64852,999,4923,.28173794E-3,.4011E-4,0
STARLINK-34676,2025-152M,2026-06-09T14:18:32.367744,15.05638261,.00021966,97.3860,15.2898,91.9709,268.1770,0,U,64853,999,4924,.4672843E-3,.6689E-4,0
STARLINK-34682,2025-152N,2026-06-09T13:10:44.411232,15.05649601,.00022051,97.3878,15.3650,70.6960,289.4506,0,U,64854,999,4924,-.88216988E-4,-.133E-4,0
STARLINK-34631,2025-152P,2026-06-09T12:18:53.101440,15.05662727,.00029469,97.3842,15.2501,85.3257,274.8307,0,U,64855,999,4923,.46920665E-3,.6721E-4,0
STARLINK-34578,2025-152Q,2026-06-09T14:38:27.794688,15.05651021,.00019586,97.3873,15.4405,73.0855,287.0587,0,U,64856,999,4925,.64031415E-4,.866E-5,0
STARLINK-34683,2025-152R,2026-06-09T12:02:57.843168,15.05665420,.00025329,97.3868,15.2717,77.3775,282.7735,0,U,64857,999,4923,.40916081E-3,.5853E-4,0
STARLINK-34654,2025-152S,2026-06-09T13:06:46.221120,15.05661872,.00023104,97.3830,15.3521,76.1420,284.0064,0,U,64858,999,4924,.60330354E-3,.8661E-4,0
STARLINK-34575,2025-152T,2026-06-09T14:34:28.154784,15.05657645,.00020691,97.3823,15.4321,88.3395,271.8069,0,U,64859,999,4925,.29058676E-3,.4138E-4,0
STARLINK-34570,2025-152U,2026-06-09T14:22:28.638912,15.05698939,.00026165,97.3855,15.2988,96.8927,263.2598,0,U,64860,999,4924,.19274306E-2,.27899E-3,0
STARLINK-34651,2025-152V,2026-06-09T12:26:50.630784,15.05684380,.00014881,97.3903,15.2655,91.3683,268.7715,0,U,64861,999,4923,.58557742E-3,.8409E-4,0
STARLINK-34684,2025-152W,2026-06-09T13:26:40.671744,15.05661198,.00017841,97.3836,15.3501,75.7249,284.4176,0,U,64862,999,4924,.40311032E-3,.5765E-4,0
STARLINK-34690,2025-152X,2026-06-09T13:14:43.371168,15.05629172,.00008393,97.3895,15.3603,70.5332,289.5986,0,U,64863,999,4924,-.74759727E-3,-.10822E-3,0
STARLINK-34628,2025-152Y,2026-06-09T13:30:39.730176,15.05660628,.00020325,97.3834,15.3385,84.6774,275.4685,0,U,64864,999,4924,.31413428E-3,.4479E-4,0
STARLINK-34544,2025-152Z,2026-06-09T13:18:42.664608,15.05634778,.00015011,97.3881,15.3520,78.9681,281.1715,0,U,64865,999,4924,-.29452563E-3,-.4303E-4,0
STARLINK-34647,2025-157A,2026-06-09T12:05:11.063328,15.34426668,.00021413,53.1597,279.0152,45.5430,314.5747,0,U,64904,999,5017,.91414212E-3,.30663E-3,0
STARLINK-34273,2025-157B,2026-06-09T13:26:51.250560,15.34406209,.00014291,53.1602,278.6530,95.0848,265.0318,0,U,64905,999,5020,.32200369E-3,.10521E-3,0
STARLINK-34713,2025-157C,2026-06-09T15:35:57.600672,15.30217771,.00008718,53.1625,278.5027,76.5108,283.5990,0,U,64906,999,5015,.56604707E-3,.16452E-3,0
